{
  "norad_id": 32276,
  "name": "COSMOS 2432 [GLONASS-M]",
  "history": [
    {
      "epoch": "2026-03-27T13:39:24.382080Z",
      "apogee_km": 19155.28136400523,
      "perigee_km": 19104.32160450139,
      "latitude_deg": 2.2593122903173617,
      "longitude_deg": 107.94686282436884,
      "height_km": 19153.626915005087,
      "semi_major_axis_km": 25507.93848425331,
      "eccentricity": 0.0009989,
      "inclination_deg": 65.6372,
      "raan_deg": 318.8082,
      "arg_perigee_deg": 334.8511,
      "mean_anomaly_deg": 202.7099,
      "mean_motion_rev_day": 2.13103077
    }
  ]
}