{"fetched_at":"2026-03-29T02:12:04Z","count":15717,"tles":[{"name":"COSMOS 2432 (719)","line1":"1 32276U 07052B   26086.56903220 -.00000031  00000+0  00000+0 0  9996","line2":"2 32276  65.6372 318.8082 0009989 334.8511 202.7099  2.13103077143349","category":"Other"}]}